OBJECT_NAME,OBJECT_ID,EPOCH,MEAN_MOTION,ECCENTRICITY,INCLINATION,RA_OF_ASC_NODE,ARG_OF_PERICENTER,MEAN_ANOMALY,EPHEMERIS_TYPE,CLASSIFICATION_TYPE,NORAD_CAT_ID,ELEMENT_SET_NO,REV_AT_EPOCH,BSTAR,MEAN_MOTION_DOT,MEAN_MOTION_DDOT
LEMUR-2-FINNIAN,2025-276DX,2026-07-14T10:07:12.706176,15.00610397,.00084412,97.5382,265.5655,359.1143,1.0065,0,U,66782,999,2408,.13038039E-3,.159E-4,0
LEMUR-2-STARLIGHT,2025-276DY,2026-07-14T03:13:55.788672,14.99346444,.00147646,97.5234,264.8524,50.4955,309.7571,0,U,66783,999,3423,.32170702E-3,.3885E-4,0
LEMUR-2-TARTIFLETTE,2025-276DZ,2026-07-14T11:12:07.444512,14.99334637,.0013893,97.5236,265.1809,57.7371,302.5197,0,U,66784,999,3428,.28923354E-3,.3485E-4,0
LEMUR-2-VUKASIN,2025-276EA,2026-07-14T10:30:16.913664,15.00542755,.00031659,97.5231,265.5105,57.3488,302.8041,0,U,66785,999,3423,.21819684E-3,.2695E-4,0
LEMUR-2-HOTSPUR-TOM,2025-276EB,2026-07-14T11:03:59.644800,14.99236545,.00137756,97.5222,265.1499,48.9536,311.2875,0,U,66786,999,3421,.24942188E-3,.2989E-4,0
LEMUR-2-MYRA,2025-276EC,2026-07-14T11:16:15.070368,15.00584149,.00186649,97.5224,265.4606,56.4466,303.8538,0,U,66787,999,3430,.27702069E-3,.3452E-4,0
LEMUR-2 FIKRETDENGIZ,2026-004A,2026-07-14T13:30:21.976704,14.88514452,.0010235,97.8023,193.7044,57.7047,302.5160,0,U,67363,999,2735,.21400469E-3,.1936E-4,0
TWILIGHT-1 OBJECT B,2026-004B,2026-07-14T14:23:24.709920,14.87792350,.00097876,97.8075,193.7418,47.7291,312.4754,0,U,67364,999,2736,.1053484E-3,.908E-5,0
LEMUR-2-MARIO-SOUSA,2026-004C,2026-07-14T13:01:29.880480,14.88724092,.00098727,97.7997,193.6797,58.9174,301.3010,0,U,67365,999,2736,.2851941E-3,.2612E-4,0
LEMUR-2-SONNENBLUME,2026-004E,2026-07-14T13:05:25.957248,14.88451175,.00094324,97.8000,193.6553,60.0000,300.2152,0,U,67367,999,2736,.16070261E-3,.1438E-4,0
LEMUR-2-WOBLER,2026-004F,2026-07-14T12:50:09.736224,14.88694603,.00095202,97.8047,193.7952,52.0741,308.1335,0,U,67368,999,2736,.23789352E-3,.2168E-4,0
LEMUR-2-GRAM-E-SUE,2026-004H,2026-07-14T11:01:57.950400,14.88587591,.00086496,97.7986,193.5875,62.8858,297.3240,0,U,67370,999,2735,.1417072E-3,.1265E-4,0
LEMUR-2-KATIE,2026-004AA,2026-07-14T13:14:32.990208,14.90248121,.00035771,97.8042,194.2275,35.6924,324.4533,0,U,67387,999,2738,.2988344E-3,.2844E-4,0
LEMUR-2-HCS-BAZUS,2026-004AB,2026-07-14T13:12:11.284704,14.90259379,.00030637,97.8038,194.2042,34.2141,325.9274,0,U,67388,999,2738,.16680988E-3,.1563E-4,0
