LEMUR-2-FINNIAN         
1 66782U 25276DX  26195.42167484  .00001590  00000+0  13038-3 0  9992
2 66782  97.5382 265.5655 0008441 359.1143   1.0065 15.00610397 24080
LEMUR-2-STARLIGHT       
1 66783U 25276DY  26195.13467348  .00003885  00000+0  32171-3 0  9991
2 66783  97.5234 264.8524 0014764  50.4955 309.7571 14.99346444 34235
LEMUR-2-TARTIFLETTE     
1 66784U 25276DZ  26195.46675283  .00003485  00000+0  28923-3 0  9993
2 66784  97.5236 265.1809 0013893  57.7371 302.5197 14.99334637 34283
LEMUR-2-VUKASIN         
1 66785U 25276EA  26195.43769576  .00002695  00000+0  21820-3 0  9991
2 66785  97.5231 265.5105 0003165  57.3488 302.8041 15.00542755 34239
LEMUR-2-HOTSPUR-TOM     
1 66786U 25276EB  26195.46110700  .00002989  00000+0  24942-3 0  9998
2 66786  97.5222 265.1499 0013775  48.9536 311.2875 14.99236545 34211
LEMUR-2-MYRA            
1 66787U 25276EC  26195.46961887  .00003452  00000+0  27702-3 0  9992
2 66787  97.5224 265.4606 0018664  56.4466 303.8538 15.00584149 34307
LEMUR-2 FIKRETDENGIZ    
1 67363U 26004A   26195.56275436  .00001936  00000+0  21400-3 0  9996
2 67363  97.8023 193.7044 0010235  57.7047 302.5160 14.88514452 27351
TWILIGHT-1 OBJECT B     
1 67364U 26004B   26195.59959155  .00000908  00000+0  10535-3 0  9992
2 67364  97.8075 193.7418 0009787  47.7291 312.4754 14.87792350 27368
LEMUR-2-MARIO-SOUSA     
1 67365U 26004C   26195.54270695  .00002612  00000+0  28519-3 0  9998
2 67365  97.7997 193.6797 0009872  58.9174 301.3010 14.88724092 27360
LEMUR-2-SONNENBLUME     
1 67367U 26004E   26195.54543932  .00001438  00000+0  16070-3 0  9991
2 67367  97.8000 193.6553 0009432  60.0000 300.2152 14.88451175 27366
LEMUR-2-WOBLER          
1 67368U 26004F   26195.53483491  .00002168  00000+0  23789-3 0  9990
2 67368  97.8047 193.7952 0009520  52.0741 308.1335 14.88694603 27368
LEMUR-2-GRAM-E-SUE      
1 67370U 26004H   26195.45969850  .00001265  00000+0  14171-3 0  9994
2 67370  97.7986 193.5875 0008649  62.8858 297.3240 14.88587591 27353
LEMUR-2-KATIE           
1 67387U 26004AA  26195.55177072  .00002844  00000+0  29883-3 0  9990
2 67387  97.8042 194.2275 0003577  35.6924 324.4533 14.90248121 27380
LEMUR-2-HCS-BAZUS       
1 67388U 26004AB  26195.55013061  .00001563  00000+0  16681-3 0  9997
2 67388  97.8038 194.2042 0003063  34.2141 325.9274 14.90259379 27389
